{
    "links": {
        "self": "http://www.neowsapp.com/rest/v1/neo/3843440?api_key=iIulBulltgU6a56xZRHN4H3l9WmuAYTsLGpBGhQ2"
    },
    "id": "3843440",
    "neo_reference_id": "3843440",
    "name": "(2019 OP4)",
    "designation": "2019 OP4",
    "nasa_jpl_url": "http://ssd.jpl.nasa.gov/sbdb.cgi?sstr=3843440",
    "absolute_magnitude_h": 27.2,
    "estimated_diameter": {
        "kilometers": {
            "estimated_diameter_min": 0.0096506147,
            "estimated_diameter_max": 0.0215794305
        },
        "meters": {
            "estimated_diameter_min": 9.6506146958,
            "estimated_diameter_max": 21.5794304844
        },
        "miles": {
            "estimated_diameter_min": 0.0059966121,
            "estimated_diameter_max": 0.0134088323
        },
        "feet": {
            "estimated_diameter_min": 31.6621227185,
            "estimated_diameter_max": 70.7986587106
        }
    },
    "is_potentially_hazardous_asteroid": false,
    "close_approach_data": [
        {
            "close_approach_date": "2015-04-23",
            "close_approach_date_full": "2015-Apr-23 04:03",
            "epoch_date_close_approach": 1429761780000,
            "relative_velocity": {
                "kilometers_per_second": "17.7951187734",
                "kilometers_per_hour": "64062.4275841536",
                "miles_per_hour": "39805.9011841648"
            },
            "miss_distance": {
                "astronomical": "0.3842906419",
                "lunar": "149.4890596991",
                "kilometers": "57489061.489172753",
                "miles": "35722046.3560718714"
            },
            "orbiting_body": "Earth"
        },
        {
            "close_approach_date": "2019-07-29",
            "close_approach_date_full": "2019-Jul-29 11:01",
            "epoch_date_close_approach": 1564398060000,
            "relative_velocity": {
                "kilometers_per_second": "9.8976292485",
                "kilometers_per_hour": "35631.4652947179",
                "miles_per_hour": "22140.0068660429"
            },
            "miss_distance": {
                "astronomical": "0.0070153395",
                "lunar": "2.7289670655",
                "kilometers": "1049479.846526865",
                "miles": "652116.537586137"
            },
            "orbiting_body": "Moon"
        },
        {
            "close_approach_date": "2019-07-29",
            "close_approach_date_full": "2019-Jul-29 12:59",
            "epoch_date_close_approach": 1564405140000,
            "relative_velocity": {
                "kilometers_per_second": "9.0268201786",
                "kilometers_per_hour": "32496.5526429721",
                "miles_per_hour": "20192.0940575179"
            },
            "miss_distance": {
                "astronomical": "0.0046476483",
                "lunar": "1.8079351887",
                "kilometers": "695278.286189121",
                "miles": "432025.8937310298"
            },
            "orbiting_body": "Earth"
        },
        {
            "close_approach_date": "2021-09-01",
            "close_approach_date_full": "2021-Sep-01 03:47",
            "epoch_date_close_approach": 1630468020000,
            "relative_velocity": {
                "kilometers_per_second": "20.7501651165",
                "kilometers_per_hour": "74700.5944195296",
                "miles_per_hour": "46416.0443491794"
            },
            "miss_distance": {
                "astronomical": "0.4374965726",
                "lunar": "170.1861667414",
                "kilometers": "65448555.393260362",
                "miles": "40667846.5282705156"
            },
            "orbiting_body": "Earth"
        },
        {
            "close_approach_date": "2025-04-15",
            "close_approach_date_full": "2025-Apr-15 23:34",
            "epoch_date_close_approach": 1744760040000,
            "relative_velocity": {
                "kilometers_per_second": "8.8456790416",
                "kilometers_per_hour": "31844.4445498891",
                "miles_per_hour": "19786.8994482353"
            },
            "miss_distance": {
                "astronomical": "0.0988334525",
                "lunar": "38.4462130225",
                "kilometers": "14785273.978746175",
                "miles": "9187143.236900215"
            },
            "orbiting_body": "Mars"
        }
    ],
    "orbital_data": {
        "orbit_id": "1",
        "orbit_determination_date": "2019-08-01 12:42:03",
        "first_observation_date": "2019-07-31",
        "last_observation_date": "2019-08-01",
        "data_arc_in_days": 1,
        "observations_used": 9,
        "orbit_uncertainty": "8",
        "minimum_orbit_intersection": ".00365752",
        "jupiter_tisserand_invariant": "4.210",
        "epoch_osculation": "2458696.5",
        "eccentricity": ".4009526857357363",
        "semi_major_axis": "1.627020681084374",
        "inclination": "9.121146523678853",
        "ascending_node_longitude": "126.3335254418761",
        "orbital_period": "758.0328678937832",
        "perihelion_distance": ".9746623692560075",
        "perihelion_argument": "147.3969848832918",
        "aphelion_distance": "2.279378992912741",
        "perihelion_time": "2458666.849380807967",
        "mean_anomaly": "14.08147767891717",
        "mean_motion": ".4749134440572091",
        "equinox": "J2000",
        "orbit_class": {
            "orbit_class_type": "APO",
            "orbit_class_description": "Near-Earth asteroid orbits which cross the Earth’s orbit similar to that of 1862 Apollo",
            "orbit_class_range": "a (semi-major axis) > 1.0 AU; q (perihelion) < 1.017 AU"
        }
    },
    "is_sentry_object": false
}